{"type": "FeatureCollection", "features": [ {"type": "Feature", "properties": {"norad_id": 31361, "name": "FENGYUN 1C DEB", "group": "fengyun-1c-debris", "lat": 78.41118804874192, "lon": -76.00158897026064, "alt_km": 799.59815356136, "timestamp": "2025-12-22T05:49:03.781703+00:00", "meta": {"OBJECT_NAME": "FENGYUN 1C DEB", "OBJECT_ID": "1999-025BRR", "EPOCH": "2025-12-20T09:23:48.416640", "MEAN_MOTION": 14.17749362, "ECCENTRICITY": 0.00459663, "INCLINATION": 98.5514, "RA_OF_ASC_NODE": 329.4165, "ARG_OF_PERICENTER": 49.0881, "MEAN_ANOMALY": 311.4261, "EPHEMERIS_TYPE": 0, "CLASSIFICATION_TYPE": "U", "NORAD_CAT_ID": 31361, "ELEMENT_SET_NO": 999, "REV_AT_EPOCH": 96672, "BSTAR": 0.0001051526, "MEAN_MOTION_DOT": 1.75e-06, "MEAN_MOTION_DDOT": 0}, "tle": {"line1": "1 31361U 99025BRR 25354.39153260  .00000175  00000+0  10515-3 0  9994", "line2": "2 31361  98.5514 329.4165 0045966  49.0881 311.4261 14.17749362966720"}}, "geometry": {"type": "Point", "coordinates": [-76.00158897026064, 78.41118804874192]}}, {"type": "Feature", "properties": {"norad_id": 31362, "name": "FENGYUN 1C DEB", "group": "fengyun-1c-debris", "lat": 46.07344846237017, "lon": -18.75512034399181, "alt_km": 817.3439365960921, "timestamp": "2025-12-22T05:49:03.781714+00:00", "meta": {"OBJECT_NAME": "FENGYUN 1C DEB", "OBJECT_ID": "1999-025BRS", "EPOCH": "2025-12-20T19:42:50.989536", "MEAN_MOTION": 14.17383986, "ECCENTRICITY": 0.00192382, "INCLINATION": 98.6527, "RA_OF_ASC_NODE": 348.9576, "ARG_OF_PERICENTER": 73.5763, "MEAN_ANOMALY": 286.7525, "EPHEMERIS_TYPE": 0, "CLASSIFICATION_TYPE": "U", "NORAD_CAT_ID": 31362, "ELEMENT_SET_NO": 999, "REV_AT_EPOCH": 96690, "BSTAR": 0.00012611764, "MEAN_MOTION_DOT": 2.13e-06, "MEAN_MOTION_DDOT": 0}, "tle": {"line1": "1 31362U 99025BRS 25354.82142349  .00000213  00000+0  12612-3 0  9992", "line2": "2 31362  98.6527 348.9576 0019238  73.5763 286.7525 14.17383986966905"}}, "geometry": {"type": "Point", "coordinates": [-18.75512034399181, 46.07344846237017]}}, {"type": "Feature", "properties": {"norad_id": 31364, "name": "FENGYUN 1C DEB", "group": "fengyun-1c-debris", "lat": -24.290358506598338, "lon": 120.4664581748967, "alt_km": 904.6509998466672, "timestamp": "2025-12-22T05:49:03.781725+00:00", "meta": {"OBJECT_NAME": "FENGYUN 1C DEB", "OBJECT_ID": "1999-025BRU", "EPOCH": "2025-12-21T06:10:20.136000", "MEAN_MOTION": 14.14738988, "ECCENTRICITY": 0.0092857, "INCLINATION": 99.2629, "RA_OF_ASC_NODE": 115.2208, "ARG_OF_PERICENTER": 125.1925, "MEAN_ANOMALY": 235.7986, "EPHEMERIS_TYPE": 0, "CLASSIFICATION_TYPE": "U", "NORAD_CAT_ID": 31364, "ELEMENT_SET_NO": 999, "REV_AT_EPOCH": 94997, "BSTAR": 0.0020572, "MEAN_MOTION_DOT": 4.086e-05, "MEAN_MOTION_DDOT": 0}, "tle": {"line1": "1 31364U 99025BRU 25355.25717750  .00004086  00000+0  20572-2 0  9991", "line2": "2 31364  99.2629 115.2208 0092857 125.1925 235.7986 14.14738988949972"}}, "geometry": {"type": "Point", "coordinates": [120.4664581748967, -24.290358506598338]}}, {"type": "Feature", "properties": {"norad_id": 31365, "name": "FENGYUN 1C DEB", "group": "fengyun-1c-debris", "lat": 48.01636971694374, "lon": -88.78961697547233, "alt_km": 732.8291595908995, "timestamp": "2025-12-22T05:49:03.781735+00:00", "meta": {"OBJECT_NAME": "FENGYUN 1C DEB", "OBJECT_ID": "1999-025BRV", "EPOCH": "2025-12-20T11:34:27.632064", "MEAN_MOTION": 14.41935663, "ECCENTRICITY": 0.00427638, "INCLINATION": 98.6748, "RA_OF_ASC_NODE": 79.6546, "ARG_OF_PERICENTER": 197.3619, "MEAN_ANOMALY": 162.611, "EPHEMERIS_TYPE": 0, "CLASSIFICATION_TYPE": "U", "NORAD_CAT_ID": 31365, "ELEMENT_SET_NO": 999, "REV_AT_EPOCH": 96740, "BSTAR": 0.0013176751, "MEAN_MOTION_DOT": 4.321e-05, "MEAN_MOTION_DDOT": 0}, "tle": {"line1": "1 31365U 99025BRV 25354.48226426  .00004321  00000+0  13177-2 0  9996", "line2": "2 31365  98.6748  79.6546 0042763 197.3619 162.6110 14.41935663967402"}}, "geometry": {"type": "Point", "coordinates": [-88.78961697547233, 48.01636971694374]}}, {"type": "Feature", "properties": {"norad_id": 31367, "name": "FENGYUN 1C DEB", "group": "fengyun-1c-debris", "lat": -43.67502812864954, "lon": 62.37575329671164, "alt_km": 778.9539432331567, "timestamp": "2025-12-22T05:49:03.781748+00:00", "meta": {"OBJECT_NAME": "FENGYUN 1C DEB", "OBJECT_ID": "1999-025BRX", "EPOCH": "2025-12-21T04:35:30.442848", "MEAN_MOTION": 14.47523379, "ECCENTRICITY": 0.00989793, "INCLINATION": 98.7459, "RA_OF_ASC_NODE": 249.7415, "ARG_OF_PERICENTER": 351.0863, "MEAN_ANOMALY": 159.9822, "EPHEMERIS_TYPE": 0, "CLASSIFICATION_TYPE": "U", "NORAD_CAT_ID": 31367, "ELEMENT_SET_NO": 999, "REV_AT_EPOCH": 98588, "BSTAR": 0.00041696927, "MEAN_MOTION_DOT": 1.578e-05, "MEAN_MOTION_DDOT": 0}, "tle": {"line1": "1 31367U 99025BRX 25355.19132457  .00001578  00000+0  41697-3 0  9997", "line2": "2 31367  98.7459 249.7415 0098979 351.0863 159.9822 14.47523379985883"}}, "geometry": {"type": "Point", "coordinates": [62.37575329671164, -43.67502812864954]}}, {"type": "Feature", "properties": {"norad_id": 31369, "name": "FENGYUN 1C DEB", "group": "fengyun-1c-debris", "lat": 35.21596026559258, "lon": -28.883642558772674, "alt_km": 846.6085489913839, "timestamp": "2025-12-22T05:49:03.781761+00:00", "meta": {"OBJECT_NAME": "FENGYUN 1C DEB", "OBJECT_ID": "1999-025BRZ", "EPOCH": "2025-12-20T04:39:35.394624", "MEAN_MOTION": 14.19419635, "ECCENTRICITY": 0.00542184, "INCLINATION": 98.6195, "RA_OF_ASC_NODE": 335.2693, "ARG_OF_PERICENTER": 277.6645, "MEAN_ANOMALY": 97.1423, "EPHEMERIS_TYPE": 0, "CLASSIFICATION_TYPE": "U", "NORAD_CAT_ID": 31369, "ELEMENT_SET_NO": 999, "REV_AT_EPOCH": 64433, "BSTAR": 0.00020619755, "MEAN_MOTION_DOT": 3.97e-06, "MEAN_MOTION_DDOT": 0}, "tle": {"line1": "1 31369U 99025BRZ 25354.19415966  .00000397  00000+0  20620-3 0  9998", "line2": "2 31369  98.6195 335.2693 0054218 277.6645  97.1423 14.19419635644339"}}, "geometry": {"type": "Point", "coordinates": [-28.883642558772674, 35.21596026559258]}}, {"type": "Feature", "properties": {"norad_id": 31370, "name": "FENGYUN 1C DEB", "group": "fengyun-1c-debris", "lat": -17.695892694089082, "lon": 173.17347155476847, "alt_km": 857.9939474853345, "timestamp": "2025-12-22T05:49:03.781772+00:00", "meta": {"OBJECT_NAME": "FENGYUN 1C DEB", "OBJECT_ID": "1999-025BSA", "EPOCH": "2025-12-18T10:35:51.641952", "MEAN_MOTION": 14.09714607, "ECCENTRICITY": 0.00331839, "INCLINATION": 98.7533, "RA_OF_ASC_NODE": 352.2955, "ARG_OF_PERICENTER": 281.205, "MEAN_ANOMALY": 78.5392, "EPHEMERIS_TYPE": 0, "CLASSIFICATION_TYPE": "U", "NORAD_CAT_ID": 31370, "ELEMENT_SET_NO": 999, "REV_AT_EPOCH": 96374, "BSTAR": 0.00035450044, "MEAN_MOTION_DOT": 5.82e-06, "MEAN_MOTION_DDOT": 0}, "tle": {"line1": "1 31370U 99025BSA 25352.44156993  .00000582  00000+0  35450-3 0  9991", "line2": "2 31370  98.7533 352.2955 0033183 281.2050  78.5392 14.09714607963740"}}, "geometry": {"type": "Point", "coordinates": [173.17347155476847, -17.695892694089082]}}, {"type": "Feature", "properties": {"norad_id": 31371, "name": "FENGYUN 1C DEB", "group": "fengyun-1c-debris", "lat": -73.6701813800444, "lon": 60.682144200565126, "alt_km": 860.1326417095588, "timestamp": "2025-12-22T05:49:03.781782+00:00", "meta": {"OBJECT_NAME": "FENGYUN 1C DEB", "OBJECT_ID": "1999-025BSB", "EPOCH": "2025-12-18T21:49:26.366880", "MEAN_MOTION": 14.04521226, "ECCENTRICITY": 0.00780785, "INCLINATION": 98.7654, "RA_OF_ASC_NODE": 25.6882, "ARG_OF_PERICENTER": 229.3308, "MEAN_ANOMALY": 130.1056, "EPHEMERIS_TYPE": 0, "CLASSIFICATION_TYPE": "U", "NORAD_CAT_ID": 31371, "ELEMENT_SET_NO": 999, "REV_AT_EPOCH": 95833, "BSTAR": 0.00050459747, "MEAN_MOTION_DOT": 7.85e-06, "MEAN_MOTION_DDOT": 0}, "tle": {"line1": "1 31371U 99025BSB 25352.90933295  .00000785  00000+0  50460-3 0  9994", "line2": "2 31371  98.7654  25.6882 0078078 229.3308 130.1056 14.04521226958335"}}, "geometry": {"type": "Point", "coordinates": [60.682144200565126, -73.6701813800444]}}, {"type": "Feature", "properties": {"norad_id": 31372, "name": "FENGYUN 1C DEB", "group": "fengyun-1c-debris", "lat": 56.6038910239488, "lon": -26.55983655564231, "alt_km": 773.5802239135919, "timestamp": "2025-12-22T05:49:03.781793+00:00", "meta": {"OBJECT_NAME": "FENGYUN 1C DEB", "OBJECT_ID": "1999-025BSC", "EPOCH": "2025-12-19T22:00:06.230592", "MEAN_MOTION": 14.26585393, "ECCENTRICITY": 0.0033993, "INCLINATION": 99.3739, "RA_OF_ASC_NODE": 345.4622, "ARG_OF_PERICENTER": 54.791, "MEAN_ANOMALY": 305.6442, "EPHEMERIS_TYPE": 0, "CLASSIFICATION_TYPE": "U", "NORAD_CAT_ID": 31372, "ELEMENT_SET_NO": 999, "REV_AT_EPOCH": 95953, "BSTAR": 0.001089, "MEAN_MOTION_DOT": 2.595e-05, "MEAN_MOTION_DDOT": 0}, "tle": {"line1": "1 31372U 99025BSC 25353.91673878  .00002595  00000+0  10890-2 0  9998", "line2": "2 31372  99.3739 345.4622 0033993  54.7910 305.6442 14.26585393959538"}}, "geometry": {"type": "Point", "coordinates": [-26.55983655564231, 56.6038910239488]}}, {"type": "Feature", "properties": {"norad_id": 31376, "name": "FENGYUN 1C DEB", "group": "fengyun-1c-debris", "lat": 78.61560237151251, "lon": -137.47135347504985, "alt_km": 711.1639424422401, "timestamp": "2025-12-22T05:49:03.781803+00:00", "meta": {"OBJECT_NAME": "FENGYUN 1C DEB", "OBJECT_ID": "1999-025BSG", "EPOCH": "2025-12-20T23:52:06.832128", "MEAN_MOTION": 14.61857636, "ECCENTRICITY": 0.00485862, "INCLINATION": 98.8347, "RA_OF_ASC_NODE": 271.7689, "ARG_OF_PERICENTER": 242.8713, "MEAN_ANOMALY": 116.7526, "EPHEMERIS_TYPE": 0, "CLASSIFICATION_TYPE": "U", "NORAD_CAT_ID": 31376, "ELEMENT_SET_NO": 999, "REV_AT_EPOCH": 98263, "BSTAR": 0.0012592303, "MEAN_MOTION_DOT": 6.349e-05, "MEAN_MOTION_DDOT": 0}, "tle": {"line1": "1 31376U 99025BSG 25354.99452352  .00006349  00000+0  12592-2 0  9995", "line2": "2 31376  98.8347 271.7689 0048586 242.8713 116.7526 14.61857636982632"}}, "geometry": {"type": "Point", "coordinates": [-137.47135347504985, 78.61560237151251]}}]}